[{"OBJECT_NAME":"STARLINK-6130","OBJECT_ID":"2023-090D","EPOCH":"2026-03-09T14:01:55.489728","MEAN_MOTION":15.02534316,"ECCENTRICITY":0.0001356,"INCLINATION":43.003,"RA_OF_ASC_NODE":275.5631,"ARG_OF_PERICENTER":267.2394,"MEAN_ANOMALY":92.8293,"EPHEMERIS_TYPE":0,"CLASSIFICATION_TYPE":"U","NORAD_CAT_ID":57104,"ELEMENT_SET_NO":999,"REV_AT_EPOCH":15039,"BSTAR":4.0166e-7,"MEAN_MOTION_DOT":-1.98e-6,"MEAN_MOTION_DDOT":0},{"OBJECT_NAME":"IMS-1","OBJECT_ID":"2008-021D","EPOCH":"2026-03-09T22:27:26.707392","MEAN_MOTION":15.03517095,"ECCENTRICITY":0.00068607,"INCLINATION":97.9418,"RA_OF_ASC_NODE":52.6663,"ARG_OF_PERICENTER":75.5168,"MEAN_ANOMALY":284.6817,"EPHEMERIS_TYPE":0,"CLASSIFICATION_TYPE":"U","NORAD_CAT_ID":32786,"ELEMENT_SET_NO":999,"REV_AT_EPOCH":96828,"BSTAR":0.00046947389,"MEAN_MOTION_DOT":6.344e-5,"MEAN_MOTION_DDOT":0}]
